SCD 1                   
1 22490U 93009B   22223.43028543  .00000304  00000+0  33915-4 0  9999
2 22490  24.9685 237.2242 0043098  36.8159 102.4478 14.44708201557511
TECHSAT 1B (GO-32)      
1 25397U 98043D   22223.45491737  .00000013  00000+0  25427-4 0  9998
2 25397  98.8206 174.0779 0000887   8.7262 351.3931 14.23765031251256
SCD 2                   
1 25504U 98060A   22223.32947547  .00000297  00000+0  33182-4 0  9999
2 25504  24.9958  92.8668 0017297  42.9978 118.4781 14.44219827256789
LANDSAT 7               
1 25682U 99020A   22223.54075119  .00000139  00000+0  38420-4 0  9999
2 25682  97.9754 269.5226 0001129  78.7486 281.3849 14.59782175240607
DLR-TUBSAT              
1 25757U 99029B   22223.28009635  .00000030  00000+0  19078-4 0  9990
2 25757  98.4898 166.3869 0013562 315.1193  44.8904 14.51510559229236
TERRA                   
1 25994U 99068A   22223.55506156  .00000185  00000+0  51002-4 0  9990
2 25994  98.1342 294.2043 0001657  92.3434  14.7067 14.57134524204520
MAROC-TUBSAT            
1 27004U 01056D   22223.37058767 -.00000039  00000+0  70221-5 0  9998
2 27004  99.6335   3.7706 0020279 149.2360 237.3674 13.70159224 33662
AQUA                    
1 27424U 02022A   22223.50229873  .00000367  00000+0  91219-4 0  9993
2 27424  98.2489 164.8782 0002025  75.3857  53.3455 14.57350423 78207
IRS-P6 (RESOURCESAT-1)  
1 28051U 03046A   22223.49934365  .00000038  00000+0  28162-4 0  9996
2 28051  98.4021 292.9458 0057913 213.1263 146.6294 14.34221572978911
SHIYAN 1 (SY-1)         
1 28220U 04012A   22223.56165615  .00001183  00000+0  94805-4 0  9999
2 28220  97.9794 217.2585 0012793 137.9180 222.3028 15.02123712998348
AURA                    
1 28376U 04026A   22223.56923186  .00000365  00000+0  91069-4 0  9991
2 28376  98.2107 166.1177 0001567  83.2925 276.8452 14.57109786961257
IRS-P5 (CARTOSAT-1)     
1 28649U 05017A   22222.96155816  .00000550  00000+0  71860-4 0  9998
2 28649  97.7154 281.5903 0002528  65.2826 294.8651 14.84220845934827
SINAH 1                 
1 28893U 05043D   22223.29171947  .00000127  00000+0  34837-4 0  9991
2 28893  98.1180 345.8689 0015197   6.1569 353.9816 14.61729542894964
EROS B                  
1 29079U 06014A   22223.57053919  .00010274  00000+0  41205-3 0  9996
2 29079  97.3879 343.5493 0005409 110.2891  18.2398 15.25176295904774
RESURS-DK 1             
1 29228U 06021A   22223.57883011  .00000784  00000+0  64853-4 0  9994
2 29228  69.9367 348.5165 0006270 310.4480  49.6134 15.03339546890667
ARIRANG-2 (KOMPSAT-2)   
1 29268U 06031A   22223.58420046  .00000371  00000+0  82047-4 0  9992
2 29268  97.8994  90.1337 0016074 192.9707 167.1103 14.62474285855955
LAPAN-TUBSAT            
1 29709U 07001A   22223.49605163  .00000280  00000+0  41465-4 0  9993
2 29709  97.9701 185.9749 0014116  78.0389 282.2399 14.82530710842665
CARTOSAT-2 (IRS-P7)     
1 29710U 07001B   22223.02689680  .00013453  00000+0  32800-3 0  9998
2 29710  97.8698 331.7200 0146747 225.4721 133.4455 15.30559271844588
HAIYANG-1B              
1 31113U 07010A   22223.53556766  .00000039  00000+0  30875-4 0  9999
2 31113  98.3176 246.2405 0014797  53.1201 307.1337 14.30327335799648
COSMO-SKYMED 1          
1 31598U 07023A   22223.49044537  .00000620  00000+0  84407-4 0  9999
2 31598  97.8890  46.3616 0001554  98.7682 261.3717 14.82160258821117
TERRASAR-X              
1 31698U 07026A   22223.51354414 -.00000484  00000+0 -19845-4 0  9998
2 31698  97.4465 230.3327 0001715  59.9594  30.8640 15.19145135840478
WORLDVIEW-1 (WV-1)      
1 32060U 07041A   22223.48209113  .00003594  00000+0  15003-3 0  9994
2 32060  97.3911 342.1213 0004959 305.5122  54.5652 15.24283339828773
YAOGAN 3                
1 32289U 07055A   22223.44957583  .00001346  00000+0  17863-3 0  9998
2 32289  97.9466 244.9129 0001385  81.8750 278.2615 14.81466726797182
COSMO-SKYMED 2          
1 32376U 07059A   22223.45669735  .00000054  00000+0  13404-4 0  9992
2 32376  97.8890  46.3279 0001649  97.2479 262.8952 14.82155834793850
RADARSAT-2              
1 32382U 07061A   22223.49318076  .00000102  00000+0  56471-4 0  9990
2 32382  98.5770 229.6280 0001280  96.1690  56.4006 14.29984211765164
CARTOSAT-2A             
1 32783U 08021A   22223.43500641  .00000420  00000+0  64354-4 0  9999
2 32783  97.9628 283.1011 0012358 357.0405   3.0729 14.78642366771143
HUANJING 1A (HJ-1A)     
1 33320U 08041A   22223.60113488  .00000271  00000+0  44326-4 0  9998
2 33320  97.6751 254.0663 0022385  54.7976 305.5336 14.77886833750532
HUANJING 1B (HJ-1B)     
1 33321U 08041B   22223.61846526  .00000644  00000+0  95541-4 0  9995
2 33321  97.6924 257.7589 0035779  71.4962 289.0152 14.77815842750538
GEOEYE 1                
1 33331U 08042A   22223.63487664  .00000321  00000+0  69393-4 0  9991
2 33331  98.1107 297.8229 0010289 100.9203 259.3166 14.64552476744444
THEOS                   
1 33396U 08049A   22223.47427207  .00000086  00000+0  61064-4 0  9993
2 33396  98.7462 290.5883 0001355 101.4947  24.1584 14.20005301718474
COSMO-SKYMED 3          
1 33412U 08054A   22223.50235151  .00000339  00000+0  39258-4 0  9998
2 33412  97.8893  47.3186 0016267 298.2889  61.6781 14.91873658746385
YAOGAN 4                
1 33446U 08061A   22222.96617016  .00000378  00000+0  60085-4 0  9991
2 33446  97.8183 161.4423 0015306 322.2117  37.8018 14.77428264737641
GOSAT (IBUKI)           
1 33492U 09002A   22223.23468922  .00000372  00000+0  74191-4 0  9996
2 33492  98.1191 335.4506 0001656  96.7647 263.3745 14.67521022725256
YAOGAN 6                
1 34839U 09021A   22223.54175007  .00003388  00000+0  11809-3 0  9992
2 34839  97.0852 201.1525 0027954  99.9752 260.4646 15.29924065739655
DEIMOS-1                
1 35681U 09041A   22223.59020712  .00000170  00000+0  34297-4 0  9990
2 35681  97.7104  71.8227 0002817  66.4646 293.6866 14.72086202699882
DUBAISAT-1              
1 35682U 09041B   22223.46760926  .00000510  00000+0  94316-4 0  9991
2 35682  97.8086  14.2867 0010106 253.3743 106.6390 14.69244552698366
OCEANSAT-2              
1 35931U 09051A   22223.55770195 -.00043336  00000+0 -14941-1 0  9996
2 35931  98.3007 316.4067 0001527 336.4290  23.6807 14.36197547682121
WORLDVIEW-2 (WV-2)      
1 35946U 09055A   22223.46586510  .00000066  00000+0  36648-4 0  9994
2 35946  98.4857 297.9158 0001438 142.6648 217.4645 14.37655341673811
SMOS                    
1 36036U 09059A   22223.48932942  .00000136  00000+0  57197-4 0  9995
2 36036  98.4442  50.2122 0001260  84.8615 275.2717 14.39768942671181
YAOGAN 7                
1 36110U 09069A   22223.61747720 -.00001988  00000+0 -28525-3 0  9992
2 36110  98.1955  84.0325 0024246 229.6249 130.2979 14.75146571682271
TANDEM-X                
1 36605U 10030A   22223.58375310  .00001143  00000+0  57613-4 0  9991
2 36605  97.4444 230.4050 0001558  92.9363  21.6712 15.19154826673231
CARTOSAT-2B             
1 36795U 10035A   22223.47270529  .00000322  00000+0  51008-4 0  9990
2 36795  97.9571 283.2474 0015183  68.9941 291.2896 14.78685117652193
YAOGAN 10               
1 36834U 10038A   22223.45697452  .00000259  00000+0  39940-4 0  9993
2 36834  97.9762 234.0224 0001405  76.3851 283.7536 14.81314773648925
COSMO-SKYMED 4          
1 37216U 10060A   22223.53688149  .00000308  00000+0  45201-4 0  9997
2 37216  97.8889  46.4068 0001359  82.4262 277.7139 14.82155819636410
RESOURCESAT-2           
1 37387U 11015A   22223.44867783  .00000037  00000+0  36643-4 0  9999
2 37387  98.6604 294.9301 0003100 273.7271  86.3556 14.21651899586978
HAIYANG-2A              
1 37781U 11043A   22223.51753213 -.00000003  00000+0  39820-4 0  9992
2 37781  99.3178 228.4169 0001679  78.7473 281.3867 13.78743451552972
RASAT                   
1 37791U 11044D   22223.48885335  .00000180  00000+0  42494-4 0  9997
2 37791  98.0971 315.6298 0021049 319.7834  40.1812 14.65049111587174
MEGHA-TROPIQUES         
1 37838U 11058A   22222.44246135  .00000293  00000+0  16726-4 0  9992
2 37838  19.9778 321.5241 0010370 145.8501 214.2571 14.09629902491407
SRMSAT                  
1 37841U 11058D   22223.51781058  .00000340  00000+0  41459-4 0  9997
2 37841  19.9719 282.0773 0011664 228.7904 265.0852 14.10764841559025
YAOGAN 13               
1 37941U 11072A   22223.52392101  .00004534  00000+0  20348-3 0  9994
2 37941  97.6342 174.4331 0001758 147.2014 324.4555 15.21710590593174
PLEIADES 1A             
1 38012U 11076F   22223.46739893  .00000098  00000+0  30969-4 0  9996
2 38012  98.1982 297.7022 0001260  94.0565 266.0783 14.58568315567095
ZIYUAN 1-02C (ZY 1-02C) 
1 38038U 11079A   22223.57055708  .00000092  00000+0  47513-4 0  9992
2 38038  98.5860 287.9321 0008007  99.5849 260.6250 14.35322098557398
ZIYUAN 3-1 (ZY 3-1)     
1 38046U 12001A   22223.49134411  .00003559  00000+0  16158-3 0  9998
2 38046  97.3382 293.0390 0000705 204.4172 280.4876 15.21418997587971
ARIRANG-3 (KOMPSAT-3)   
1 38338U 12025B   22223.61267397  .00000201  00000+0  49661-4 0  9999
2 38338  98.1819 163.1668 0010148 195.4143 164.6748 14.61893287546038
KANOPUS-V 1             
1 38707U 12039A   22223.60370462  .00003822  00000+0  16805-3 0  9996
2 38707  97.4680 145.3306 0001782  83.8275  38.3653 15.22494701557789
EXACTVIEW-1 (ADS-1B)    
1 38709U 12039C   22223.14766691  .00000025  00000+0  31168-4 0  9992
2 38709  99.0063 290.9816 0009963 260.1633  99.8420 14.24113144522522
SPOT 6                  
1 38755U 12047A   22223.48198123  .00001479  00000+0  32811-3 0  9997
2 38755  98.2318 289.5955 0001060  86.5934 273.5343 14.58547847528179
PLEIADES 1B             
1 39019U 12068A   22223.50168530  .00000091  00000+0  29504-4 0  9991
2 39019  98.1935 297.6941 0001397  87.5106 272.6261 14.58556494515956
GOKTURK 2               
1 39030U 12073A   22223.60052551  .00000161  00000+0  32548-4 0  9996
2 39030  97.8480 100.8037 0001663 115.0423 245.0966 14.72896825517472
LANDSAT 8               
1 39084U 13008A   22223.49774540  .00000172  00000+0  48260-4 0  9990
2 39084  98.2197 293.1163 0001290  95.4484 264.6862 14.57105869493199
